[{"OBJECT_NAME":"ONEWEB-0050","OBJECT_ID":"2020-020AF","EPOCH":"2025-09-21T04:37:08.189760","MEAN_MOTION":14.88940673,"ECCENTRICITY":0.0001769,"INCLINATION":88.3033,"RA_OF_ASC_NODE":271.3737,"ARG_OF_PERICENTER":44.6042,"MEAN_ANOMALY":315.5328,"EPHEMERIS_TYPE":0,"CLASSIFICATION_TYPE":"U","NORAD_CAT_ID":45453,"ELEMENT_SET_NO":999,"REV_AT_EPOCH":30033,"BSTAR":0.00081241743,"MEAN_MOTION_DOT":7.651e-5,"MEAN_MOTION_DDOT":0},{"OBJECT_NAME":"ONEWEB-0034","OBJECT_ID":"2020-020AG","EPOCH":"2025-09-21T04:18:18.301536","MEAN_MOTION":13.11413185,"ECCENTRICITY":0.00016338,"INCLINATION":87.8789,"RA_OF_ASC_NODE":74.6393,"ARG_OF_PERICENTER":90.489,"MEAN_ANOMALY":269.6425,"EPHEMERIS_TYPE":0,"CLASSIFICATION_TYPE":"U","NORAD_CAT_ID":45454,"ELEMENT_SET_NO":999,"REV_AT_EPOCH":26733,"BSTAR":-0.00022186591,"MEAN_MOTION_DOT":-6.6e-7,"MEAN_MOTION_DDOT":0},{"OBJECT_NAME":"ONEWEB-0060","OBJECT_ID":"2020-020AH","EPOCH":"2025-09-21T05:26:40.997760","MEAN_MOTION":13.11416443,"ECCENTRICITY":0.00010616,"INCLINATION":87.8782,"RA_OF_ASC_NODE":74.6555,"ARG_OF_PERICENTER":42.5708,"MEAN_ANOMALY":317.5502,"EPHEMERIS_TYPE":0,"CLASSIFICATION_TYPE":"U","NORAD_CAT_ID":45455,"ELEMENT_SET_NO":999,"REV_AT_EPOCH":26729,"BSTAR":0.0012680019,"MEAN_MOTION_DOT":4.62e-6,"MEAN_MOTION_DDOT":0},{"OBJECT_NAME":"ONEWEB-0086","OBJECT_ID":"2020-020AJ","EPOCH":"2025-09-21T04:56:09.068064","MEAN_MOTION":13.11418177,"ECCENTRICITY":8.79e-5,"INCLINATION":87.879,"RA_OF_ASC_NODE":74.6311,"ARG_OF_PERICENTER":95.017,"MEAN_ANOMALY":265.1058,"EPHEMERIS_TYPE":0,"CLASSIFICATION_TYPE":"U","NORAD_CAT_ID":45456,"ELEMENT_SET_NO":999,"REV_AT_EPOCH":26735,"BSTAR":-0.00080141841,"MEAN_MOTION_DOT":-2.71e-6,"MEAN_MOTION_DDOT":0},{"OBJECT_NAME":"ONEWEB-0088","OBJECT_ID":"2020-020AK","EPOCH":"2025-09-21T04:24:23.590368","MEAN_MOTION":13.11413402,"ECCENTRICITY":0.00017351,"INCLINATION":87.8793,"RA_OF_ASC_NODE":74.5828,"ARG_OF_PERICENTER":87.2167,"MEAN_ANOMALY":272.9159,"EPHEMERIS_TYPE":0,"CLASSIFICATION_TYPE":"U","NORAD_CAT_ID":45457,"ELEMENT_SET_NO":999,"REV_AT_EPOCH":26728,"BSTAR":-0.00069907512,"MEAN_MOTION_DOT":-2.35e-6,"MEAN_MOTION_DDOT":0},{"OBJECT_NAME":"ONEWEB-0102","OBJECT_ID":"2020-100A","EPOCH":"2025-09-20T22:35:32.173440","MEAN_MOTION":13.12442809,"ECCENTRICITY":0.00016729,"INCLINATION":87.8917,"RA_OF_ASC_NODE":44.1757,"ARG_OF_PERICENTER":102.1148,"MEAN_ANOMALY":258.0168,"EPHEMERIS_TYPE":0,"CLASSIFICATION_TYPE":"U","NORAD_CAT_ID":47258,"ELEMENT_SET_NO":999,"REV_AT_EPOCH":22941,"BSTAR":-0.00024461568,"MEAN_MOTION_DOT":-7.5e-7,"MEAN_MOTION_DDOT":0},{"OBJECT_NAME":"ONEWEB-0109","OBJECT_ID":"2020-100B","EPOCH":"2025-09-20T22:47:12.501600","MEAN_MOTION":13.12440172,"ECCENTRICITY":0.00016561,"INCLINATION":87.8916,"RA_OF_ASC_NODE":44.1423,"ARG_OF_PERICENTER":101.1468,"MEAN_ANOMALY":258.9847,"EPHEMERIS_TYPE":0,"CLASSIFICATION_TYPE":"U","NORAD_CAT_ID":47259,"ELEMENT_SET_NO":999,"REV_AT_EPOCH":22924,"BSTAR":-0.00097271914,"MEAN_MOTION_DOT":-3.37e-6,"MEAN_MOTION_DDOT":0},{"OBJECT_NAME":"ONEWEB-0110","OBJECT_ID":"2020-100C","EPOCH":"2025-09-21T03:04:08.927040","MEAN_MOTION":13.12444003,"ECCENTRICITY":0.0001392,"INCLINATION":87.8917,"RA_OF_ASC_NODE":44.0908,"ARG_OF_PERICENTER":96.5472,"MEAN_ANOMALY":263.5815,"EPHEMERIS_TYPE":0,"CLASSIFICATION_TYPE":"U","NORAD_CAT_ID":47260,"ELEMENT_SET_NO":999,"REV_AT_EPOCH":22943,"BSTAR":-0.00053544352,"MEAN_MOTION_DOT":-1.8e-6,"MEAN_MOTION_DDOT":0},{"OBJECT_NAME":"ONEWEB-0111","OBJECT_ID":"2020-100D","EPOCH":"2025-09-21T01:58:46.133760","MEAN_MOTION":13.12443117,"ECCENTRICITY":0.00016675,"INCLINATION":87.8918,"RA_OF_ASC_NODE":44.1172,"ARG_OF_PERICENTER":97.8866,"MEAN_ANOMALY":262.2451,"EPHEMERIS_TYPE":0,"CLASSIFICATION_TYPE":"U","NORAD_CAT_ID":47261,"ELEMENT_SET_NO":999,"REV_AT_EPOCH":22926,"BSTAR":0.00097251772,"MEAN_MOTION_DOT":3.63e-6,"MEAN_MOTION_DDOT":0},{"OBJECT_NAME":"ONEWEB-0114","OBJECT_ID":"2020-100E","EPOCH":"2025-09-21T02:43:07.441248","MEAN_MOTION":13.12443063,"ECCENTRICITY":0.0001872,"INCLINATION":87.8919,"RA_OF_ASC_NODE":44.1048,"ARG_OF_PERICENTER":105.4061,"MEAN_ANOMALY":254.7274,"EPHEMERIS_TYPE":0,"CLASSIFICATION_TYPE":"U","NORAD_CAT_ID":47262,"ELEMENT_SET_NO":999,"REV_AT_EPOCH":22922,"BSTAR":-0.0013623498,"MEAN_MOTION_DOT":-4.77e-6,"MEAN_MOTION_DDOT":0},{"OBJECT_NAME":"ONEWEB-0117","OBJECT_ID":"2020-100F","EPOCH":"2025-09-21T02:31:26.744160","MEAN_MOTION":13.12441721,"ECCENTRICITY":0.00016241,"INCLINATION":87.8918,"RA_OF_ASC_NODE":44.1045,"ARG_OF_PERICENTER":96.1196,"MEAN_ANOMALY":264.0117,"EPHEMERIS_TYPE":0,"CLASSIFICATION_TYPE":"U","NORAD_CAT_ID":47263,"ELEMENT_SET_NO":999,"REV_AT_EPOCH":22923,"BSTAR":-0.0011104419,"MEAN_MOTION_DOT":-3.87e-6,"MEAN_MOTION_DDOT":0},{"OBJECT_NAME":"ONEWEB-0118","OBJECT_ID":"2020-100G","EPOCH":"2025-09-21T03:18:11.687328","MEAN_MOTION":13.12443802,"ECCENTRICITY":0.0002003,"INCLINATION":87.892,"RA_OF_ASC_NODE":44.0973,"ARG_OF_PERICENTER":98.8327,"MEAN_ANOMALY":261.3028,"EPHEMERIS_TYPE":0,"CLASSIFICATION_TYPE":"U","NORAD_CAT_ID":47264,"ELEMENT_SET_NO":999,"REV_AT_EPOCH":22943,"BSTAR":0.00078559086,"MEAN_MOTION_DOT":2.95e-6,"MEAN_MOTION_DDOT":0},{"OBJECT_NAME":"ONEWEB-0119","OBJECT_ID":"2020-100H","EPOCH":"2025-09-21T02:08:05.592768","MEAN_MOTION":13.12441364,"ECCENTRICITY":0.00016042,"INCLINATION":87.8916,"RA_OF_ASC_NODE":44.1443,"ARG_OF_PERICENTER":97.9342,"MEAN_ANOMALY":262.1969,"EPHEMERIS_TYPE":0,"CLASSIFICATION_TYPE":"U","NORAD_CAT_ID":47265,"ELEMENT_SET_NO":999,"REV_AT_EPOCH":22940,"BSTAR":0.00013123721,"MEAN_MOTION_DOT":6.0e-7,"MEAN_MOTION_DDOT":0},{"OBJECT_NAME":"ONEWEB-0120","OBJECT_ID":"2020-100J","EPOCH":"2025-09-21T02:40:59.119104","MEAN_MOTION":13.12441777,"ECCENTRICITY":0.00017212,"INCLINATION":87.8921,"RA_OF_ASC_NODE":44.1413,"ARG_OF_PERICENTER":101.1295,"MEAN_ANOMALY":259.0027,"EPHEMERIS_TYPE":0,"CLASSIFICATION_TYPE":"U","NORAD_CAT_ID":47266,"ELEMENT_SET_NO":999,"REV_AT_EPOCH":22943,"BSTAR":-0.0015992339,"MEAN_MOTION_DOT":-5.63e-6,"MEAN_MOTION_DDOT":0},{"OBJECT_NAME":"ONEWEB-0121","OBJECT_ID":"2020-100K","EPOCH":"2025-09-21T02:24:27.718848","MEAN_MOTION":13.12441506,"ECCENTRICITY":0.00014945,"INCLINATION":87.8914,"RA_OF_ASC_NODE":44.1099,"ARG_OF_PERICENTER":95.3601,"MEAN_ANOMALY":264.7698,"EPHEMERIS_TYPE":0,"CLASSIFICATION_TYPE":"U","NORAD_CAT_ID":47267,"ELEMENT_SET_NO":999,"REV_AT_EPOCH":22934,"BSTAR":-0.00053464118,"MEAN_MOTION_DOT":-1.8e-6,"MEAN_MOTION_DDOT":0},{"OBJECT_NAME":"ONEWEB-0122","OBJECT_ID":"2020-100L","EPOCH":"2025-09-21T02:17:14.053056","MEAN_MOTION":13.12443469,"ECCENTRICITY":0.00015626,"INCLINATION":87.8914,"RA_OF_ASC_NODE":44.1138,"ARG_OF_PERICENTER":101.7658,"MEAN_ANOMALY":258.3646,"EPHEMERIS_TYPE":0,"CLASSIFICATION_TYPE":"U","NORAD_CAT_ID":47268,"ELEMENT_SET_NO":999,"REV_AT_EPOCH":22925,"BSTAR":-9.9361856e-5,"MEAN_MOTION_DOT":-2.3e-7,"MEAN_MOTION_DDOT":0}]
