ONEWEB-0050             
1 45453U 20020AF  25264.19245590  .00007651  00000+0  81242-3 0  9997
2 45453  88.3033 271.3737 0001769  44.6042 315.5328 14.88940673300337
ONEWEB-0034             
1 45454U 20020AG  25264.17937849 -.00000066  00000+0 -22187-3 0  9999
2 45454  87.8789  74.6393 0001633  90.4890 269.6425 13.11413185267339
ONEWEB-0060             
1 45455U 20020AH  25264.22686340  .00000462  00000+0  12680-2 0  9997
2 45455  87.8782  74.6555 0001061  42.5708 317.5502 13.11416443267298
ONEWEB-0086             
1 45456U 20020AJ  25264.20566051 -.00000271  00000+0 -80142-3 0  9991
2 45456  87.8790  74.6311 0000879  95.0170 265.1058 13.11418177267357
ONEWEB-0088             
1 45457U 20020AK  25264.18360637 -.00000235  00000+0 -69908-3 0  9998
2 45457  87.8793  74.5828 0001735  87.2167 272.9159 13.11413402267280
ONEWEB-0102             
1 47258U 20100A   25263.94134460 -.00000075  00000+0 -24462-3 0  9992
2 47258  87.8917  44.1757 0001672 102.1148 258.0168 13.12442809229411
ONEWEB-0109             
1 47259U 20100B   25263.94945025 -.00000337  00000+0 -97272-3 0  9990
2 47259  87.8916  44.1423 0001656 101.1468 258.9847 13.12440172229242
ONEWEB-0110             
1 47260U 20100C   25264.12788110 -.00000180  00000+0 -53544-3 0  9993
2 47260  87.8917  44.0908 0001392  96.5472 263.5815 13.12444003229436
ONEWEB-0111             
1 47261U 20100D   25264.08247840  .00000363  00000+0  97252-3 0  9994
2 47261  87.8918  44.1172 0001667  97.8866 262.2451 13.12443117229266
ONEWEB-0114             
1 47262U 20100E   25264.11328057 -.00000477  00000+0 -13623-2 0  9996
2 47262  87.8919  44.1048 0001872 105.4061 254.7274 13.12443063229226
ONEWEB-0117             
1 47263U 20100F   25264.10517065 -.00000387  00000+0 -11104-2 0  9997
2 47263  87.8918  44.1045 0001624  96.1196 264.0117 13.12441721229233
ONEWEB-0118             
1 47264U 20100G   25264.13763527  .00000295  00000+0  78559-3 0  9991
2 47264  87.8920  44.0973 0002003  98.8327 261.3028 13.12443802229438
ONEWEB-0119             
1 47265U 20100H   25264.08895362  .00000060  00000+0  13124-3 0  9996
2 47265  87.8916  44.1443 0001604  97.9342 262.1969 13.12441364229401
ONEWEB-0120             
1 47266U 20100J   25264.11179536 -.00000563  00000+0 -15992-2 0  9993
2 47266  87.8921  44.1413 0001721 101.1295 259.0027 13.12441777229431
ONEWEB-0121             
1 47267U 20100K   25264.10032082 -.00000180  00000+0 -53464-3 0  9999
2 47267  87.8914  44.1099 0001494  95.3601 264.7698 13.12441506229343
ONEWEB-0122             
1 47268U 20100L   25264.09530154 -.00000023  00000+0 -99362-4 0  9995
2 47268  87.8914  44.1138 0001562 101.7658 258.3646 13.12443469229250
